[{"OBJECT_NAME":"KUIPER-00075","OBJECT_ID":"2025-151G","EPOCH":"2026-03-09T15:30:47.554272","MEAN_MOTION":15.41855239,"ECCENTRICITY":0.0003756,"INCLINATION":51.87,"RA_OF_ASC_NODE":221.9898,"ARG_OF_PERICENTER":280.3148,"MEAN_ANOMALY":79.7417,"EPHEMERIS_TYPE":0,"CLASSIFICATION_TYPE":"U","NORAD_CAT_ID":64822,"ELEMENT_SET_NO":999,"REV_AT_EPOCH":3639,"BSTAR":0.00059995,"MEAN_MOTION_DOT":0.00025547,"MEAN_MOTION_DDOT":0},{"OBJECT_NAME":"STARLINK-36752","OBJECT_ID":"2026-026D","EPOCH":"2026-03-09T22:00:01.999584","MEAN_MOTION":15.46482653,"ECCENTRICITY":0.00018907,"INCLINATION":97.2844,"RA_OF_ASC_NODE":123.451,"ARG_OF_PERICENTER":58.7444,"MEAN_ANOMALY":34.5153,"EPHEMERIS_TYPE":0,"CLASSIFICATION_TYPE":"U","NORAD_CAT_ID":67724,"ELEMENT_SET_NO":999,"REV_AT_EPOCH":535,"BSTAR":-0.04296969,"MEAN_MOTION_DOT":-0.01910679,"MEAN_MOTION_DDOT":0}]
